[{"OBJECT_NAME":"STARLINK-31127","OBJECT_ID":"2024-011A","EPOCH":"2026-03-09T01:28:46.323264","MEAN_MOTION":15.30195738,"ECCENTRICITY":0.00012128,"INCLINATION":53.1633,"RA_OF_ASC_NODE":16.6302,"ARG_OF_PERICENTER":93.1699,"MEAN_ANOMALY":266.944,"EPHEMERIS_TYPE":0,"CLASSIFICATION_TYPE":"U","NORAD_CAT_ID":58765,"ELEMENT_SET_NO":999,"REV_AT_EPOCH":12017,"BSTAR":4.6352502e-5,"MEAN_MOTION_DOT":1.014e-5,"MEAN_MOTION_DDOT":0},{"OBJECT_NAME":"CZ-4B R\/B","OBJECT_ID":"2004-035C","EPOCH":"2026-03-09T23:23:31.358400","MEAN_MOTION":15.2906998,"ECCENTRICITY":0.00309852,"INCLINATION":97.3501,"RA_OF_ASC_NODE":103.2135,"ARG_OF_PERICENTER":330.5139,"MEAN_ANOMALY":29.4353,"EPHEMERIS_TYPE":0,"CLASSIFICATION_TYPE":"U","NORAD_CAT_ID":28415,"ELEMENT_SET_NO":999,"REV_AT_EPOCH":17995,"BSTAR":0.00034109099,"MEAN_MOTION_DOT":9.691e-5,"MEAN_MOTION_DDOT":0}]
